[{"OBJECT_NAME":"SL-8 R/B","OBJECT_ID":"1991-006B","EPOCH":"2026-04-28T18:23:19.525344","MEAN_MOTION":13.7750542,"ECCENTRICITY":0.0020986,"INCLINATION":82.9397,"RA_OF_ASC_NODE":132.8037,"ARG_OF_PERICENTER":253.8849,"MEAN_ANOMALY":280.0646,"EPHEMERIS_TYPE":0,"CLASSIFICATION_TYPE":"U","NORAD_CAT_ID":21088,"ELEMENT_SET_NO":999,"REV_AT_EPOCH":77096,"BSTAR":0.00018814,"MEAN_MOTION_DOT":2.02e-6,"MEAN_MOTION_DDOT":0},{"OBJECT_NAME":"OKEAN-3","OBJECT_ID":"1991-039A","EPOCH":"2026-04-28T17:53:25.864800","MEAN_MOTION":15.05074964,"ECCENTRICITY":0.0014535,"INCLINATION":82.5134,"RA_OF_ASC_NODE":288.3224,"ARG_OF_PERICENTER":154.9887,"MEAN_ANOMALY":205.2047,"EPHEMERIS_TYPE":0,"CLASSIFICATION_TYPE":"U","NORAD_CAT_ID":21397,"ELEMENT_SET_NO":999,"REV_AT_EPOCH":87256,"BSTAR":0.00028275,"MEAN_MOTION_DOT":4.055e-5,"MEAN_MOTION_DDOT":0},{"OBJECT_NAME":"COSMOS 2151","OBJECT_ID":"1991-042A","EPOCH":"2026-04-28T20:10:57.133920","MEAN_MOTION":15.00304236,"ECCENTRICITY":0.001069,"INCLINATION":82.4989,"RA_OF_ASC_NODE":35.2928,"ARG_OF_PERICENTER":247.8569,"MEAN_ANOMALY":112.1521,"EPHEMERIS_TYPE":0,"CLASSIFICATION_TYPE":"U","NORAD_CAT_ID":21422,"ELEMENT_SET_NO":999,"REV_AT_EPOCH":87071,"BSTAR":0.00015006,"MEAN_MOTION_DOT":1.908e-5,"MEAN_MOTION_DDOT":0},{"OBJECT_NAME":"SL-14 R/B","OBJECT_ID":"1991-042B","EPOCH":"2026-04-28T20:39:58.195008","MEAN_MOTION":14.81872054,"ECCENTRICITY":0.0018554,"INCLINATION":82.494,"RA_OF_ASC_NODE":173.1511,"ARG_OF_PERICENTER":77.7545,"MEAN_ANOMALY":282.5746,"EPHEMERIS_TYPE":0,"CLASSIFICATION_TYPE":"U","NORAD_CAT_ID":21423,"ELEMENT_SET_NO":999,"REV_AT_EPOCH":86050,"BSTAR":4.0518e-5,"MEAN_MOTION_DOT":3.45e-6,"MEAN_MOTION_DDOT":0},{"OBJECT_NAME":"ERS-1","OBJECT_ID":"1991-050A","EPOCH":"2026-04-28T19:32:13.296192","MEAN_MOTION":14.39485296,"ECCENTRICITY":0.0032889,"INCLINATION":98.7831,"RA_OF_ASC_NODE":138.2999,"ARG_OF_PERICENTER":55.0021,"MEAN_ANOMALY":305.4246,"EPHEMERIS_TYPE":0,"CLASSIFICATION_TYPE":"U","NORAD_CAT_ID":21574,"ELEMENT_SET_NO":999,"REV_AT_EPOCH":82294,"BSTAR":0.000117,"MEAN_MOTION_DOT":3.21e-6,"MEAN_MOTION_DDOT":0},{"OBJECT_NAME":"ARIANE 40 R/B","OBJECT_ID":"1991-050F","EPOCH":"2026-04-28T17:54:02.794752","MEAN_MOTION":14.42926959,"ECCENTRICITY":0.000177,"INCLINATION":98.1917,"RA_OF_ASC_NODE":169.0788,"ARG_OF_PERICENTER":287.6334,"MEAN_ANOMALY":72.4663,"EPHEMERIS_TYPE":0,"CLASSIFICATION_TYPE":"U","NORAD_CAT_ID":21610,"ELEMENT_SET_NO":999,"REV_AT_EPOCH":82621,"BSTAR":9.9609e-5,"MEAN_MOTION_DOT":2.91e-6,"MEAN_MOTION_DDOT":0},{"OBJECT_NAME":"INTERCOSMOS 25","OBJECT_ID":"1991-086A","EPOCH":"2026-04-28T20:11:16.094400","MEAN_MOTION":12.12133935,"ECCENTRICITY":0.1485667,"INCLINATION":82.5994,"RA_OF_ASC_NODE":279.6732,"ARG_OF_PERICENTER":8.842,"MEAN_ANOMALY":353.5963,"EPHEMERIS_TYPE":0,"CLASSIFICATION_TYPE":"U","NORAD_CAT_ID":21819,"ELEMENT_SET_NO":999,"REV_AT_EPOCH":50276,"BSTAR":0.00016501,"MEAN_MOTION_DOT":8.57e-6,"MEAN_MOTION_DDOT":0},{"OBJECT_NAME":"SL-8 R/B","OBJECT_ID":"1992-008B","EPOCH":"2026-04-28T20:01:16.570848","MEAN_MOTION":13.7597095,"ECCENTRICITY":0.0034382,"INCLINATION":82.9281,"RA_OF_ASC_NODE":230.4769,"ARG_OF_PERICENTER":356.9224,"MEAN_ANOMALY":115.6505,"EPHEMERIS_TYPE":0,"CLASSIFICATION_TYPE":"U","NORAD_CAT_ID":21876,"ELEMENT_SET_NO":999,"REV_AT_EPOCH":71631,"BSTAR":3.2095e-5,"MEAN_MOTION_DOT":4.6e-7,"MEAN_MOTION_DDOT":0},{"OBJECT_NAME":"SL-8 R/B","OBJECT_ID":"1992-020B","EPOCH":"2026-04-28T18:13:28.272000","MEAN_MOTION":13.75548172,"ECCENTRICITY":0.0029581,"INCLINATION":82.9269,"RA_OF_ASC_NODE":116.5731,"ARG_OF_PERICENTER":155.4306,"MEAN_ANOMALY":17.3406,"EPHEMERIS_TYPE":0,"CLASSIFICATION_TYPE":"U","NORAD_CAT_ID":21938,"ELEMENT_SET_NO":999,"REV_AT_EPOCH":70801,"BSTAR":-5.4485e-5,"MEAN_MOTION_DOT":-3.7e-7,"MEAN_MOTION_DDOT":0},{"OBJECT_NAME":"USA 81","OBJECT_ID":"1992-023A","EPOCH":"2026-04-28T16:14:22.740576","MEAN_MOTION":14.32383447,"ECCENTRICITY":0.0001419,"INCLINATION":85.0038,"RA_OF_ASC_NODE":102.5836,"ARG_OF_PERICENTER":106.7071,"MEAN_ANOMALY":253.4278,"EPHEMERIS_TYPE":0,"CLASSIFICATION_TYPE":"U","NORAD_CAT_ID":21949,"ELEMENT_SET_NO":999,"REV_AT_EPOCH":10194,"BSTAR":6.4892e-5,"MEAN_MOTION_DOT":1.95e-6,"MEAN_MOTION_DDOT":0},{"OBJECT_NAME":"COSMOS 2219","OBJECT_ID":"1992-076A","EPOCH":"2026-04-28T19:34:43.264992","MEAN_MOTION":14.14098339,"ECCENTRICITY":0.0016632,"INCLINATION":71.06,"RA_OF_ASC_NODE":273.2796,"ARG_OF_PERICENTER":127.4339,"MEAN_ANOMALY":232.83,"EPHEMERIS_TYPE":0,"CLASSIFICATION_TYPE":"U","NORAD_CAT_ID":22219,"ELEMENT_SET_NO":999,"REV_AT_EPOCH":72546,"BSTAR":0.00020474,"MEAN_MOTION_DOT":3.43e-6,"MEAN_MOTION_DDOT":0},{"OBJECT_NAME":"SL-16 R/B","OBJECT_ID":"1992-076B","EPOCH":"2026-04-28T15:10:37.847136","MEAN_MOTION":14.16865107,"ECCENTRICITY":0.0012237,"INCLINATION":70.9987,"RA_OF_ASC_NODE":83.1689,"ARG_OF_PERICENTER":8.7605,"MEAN_ANOMALY":164.2429,"EPHEMERIS_TYPE":0,"CLASSIFICATION_TYPE":"U","NORAD_CAT_ID":22220,"ELEMENT_SET_NO":999,"REV_AT_EPOCH":72890,"BSTAR":-1.5983e-6,"MEAN_MOTION_DOT":-5.1e-7,"MEAN_MOTION_DDOT":0},{"OBJECT_NAME":"COSMOS 2221","OBJECT_ID":"1992-080A","EPOCH":"2026-04-28T19:00:38.005056","MEAN_MOTION":14.9640069,"ECCENTRICITY":0.0014762,"INCLINATION":82.5048,"RA_OF_ASC_NODE":231.078,"ARG_OF_PERICENTER":29.9627,"MEAN_ANOMALY":330.2436,"EPHEMERIS_TYPE":0,"CLASSIFICATION_TYPE":"U","NORAD_CAT_ID":22236,"ELEMENT_SET_NO":999,"REV_AT_EPOCH":78828,"BSTAR":0.00017228,"MEAN_MOTION_DOT":1.981e-5,"MEAN_MOTION_DDOT":0},{"OBJECT_NAME":"SL-16 R/B","OBJECT_ID":"1992-093B","EPOCH":"2026-04-28T20:16:01.548768","MEAN_MOTION":14.15459656,"ECCENTRICITY":0.00061,"INCLINATION":71.0216,"RA_OF_ASC_NODE":258.9739,"ARG_OF_PERICENTER":243.3132,"MEAN_ANOMALY":116.7366,"EPHEMERIS_TYPE":0,"CLASSIFICATION_TYPE":"U","NORAD_CAT_ID":22285,"ELEMENT_SET_NO":999,"REV_AT_EPOCH":72025,"BSTAR":0.00015711,"MEAN_MOTION_DOT":2.59e-6,"MEAN_MOTION_DDOT":0},{"OBJECT_NAME":"COSMOS 2228","OBJECT_ID":"1992-094A","EPOCH":"2026-04-28T18:35:34.913760","MEAN_MOTION":14.97421601,"ECCENTRICITY":0.0019186,"INCLINATION":82.5199,"RA_OF_ASC_NODE":189.3626,"ARG_OF_PERICENTER":130.7118,"MEAN_ANOMALY":229.5775,"EPHEMERIS_TYPE":0,"CLASSIFICATION_TYPE":"U","NORAD_CAT_ID":22286,"ELEMENT_SET_NO":999,"REV_AT_EPOCH":78355,"BSTAR":0.00015536,"MEAN_MOTION_DOT":1.84e-5,"MEAN_MOTION_DDOT":0},{"OBJECT_NAME":"SL-16 R/B","OBJECT_ID":"1993-016B","EPOCH":"2026-04-28T16:16:11.496576","MEAN_MOTION":14.15308323,"ECCENTRICITY":0.0012451,"INCLINATION":71.0037,"RA_OF_ASC_NODE":110.1929,"ARG_OF_PERICENTER":250.9207,"MEAN_ANOMALY":109.0568,"EPHEMERIS_TYPE":0,"CLASSIFICATION_TYPE":"U","NORAD_CAT_ID":22566,"ELEMENT_SET_NO":999,"REV_AT_EPOCH":70924,"BSTAR":-0.00010208,"MEAN_MOTION_DOT":-2.47e-6,"MEAN_MOTION_DDOT":0},{"OBJECT_NAME":"COSMOS 2242","OBJECT_ID":"1993-024A","EPOCH":"2026-04-28T18:41:38.793408","MEAN_MOTION":14.96756307,"ECCENTRICITY":0.001742,"INCLINATION":82.5208,"RA_OF_ASC_NODE":218.8008,"ARG_OF_PERICENTER":133.8656,"MEAN_ANOMALY":226.4009,"EPHEMERIS_TYPE":0,"CLASSIFICATION_TYPE":"U","NORAD_CAT_ID":22626,"ELEMENT_SET_NO":999,"REV_AT_EPOCH":78788,"BSTAR":0.00017455,"MEAN_MOTION_DOT":2.027e-5,"MEAN_MOTION_DDOT":0}]
