SL-8 R/B                
1 21088U 91006B   26118.76619821  .00000202  00000+0  18814-3 0  9991
2 21088  82.9397 132.8037 0020986 253.8849 280.0646 13.77505420770966
OKEAN-3                 
1 21397U 91039A   26118.74543825  .00004055  00000+0  28275-3 0  9990
2 21397  82.5134 288.3224 0014535 154.9887 205.2047 15.05074964872565
COSMOS 2151             
1 21422U 91042A   26118.84093905  .00001908  00000+0  15006-3 0  9995
2 21422  82.4989  35.2928 0010690 247.8569 112.1521 15.00304236870719
SL-14 R/B               
1 21423U 91042B   26118.86109022  .00000345  00000+0  40518-4 0  9997
2 21423  82.4940 173.1511 0018554  77.7545 282.5746 14.81872054860501
ERS-1                   
1 21574U 91050A   26118.81404278  .00000321  00000+0  11700-3 0  9993
2 21574  98.7831 138.2999 0032889  55.0021 305.4246 14.39485296822941
ARIANE 40 R/B           
1 21610U 91050F   26118.74586568  .00000291  00000+0  99609-4 0  9990
2 21610  98.1917 169.0788 0001770 287.6334  72.4663 14.42926959826212
INTERCOSMOS 25          
1 21819U 91086A   26118.84115850  .00000857  00000+0  16501-3 0  9990
2 21819  82.5994 279.6732 1485667   8.8420 353.5963 12.12133935502769
SL-8 R/B                
1 21876U 92008B   26118.83421957  .00000046  00000+0  32095-4 0  9992
2 21876  82.9281 230.4769 0034382 356.9224 115.6505 13.75970950716315
SL-8 R/B                
1 21938U 92020B   26118.75935500 -.00000037  00000+0 -54485-4 0  9999
2 21938  82.9269 116.5731 0029581 155.4306  17.3406 13.75548172708014
USA 81                  
1 21949U 92023A   26118.67665209  .00000195  00000+0  64892-4 0  9997
2 21949  85.0038 102.5836 0001419 106.7071 253.4278 14.32383447101948
COSMOS 2219             
1 22219U 92076A   26118.81577853  .00000343  00000+0  20474-3 0  9991
2 22219  71.0600 273.2796 0016632 127.4339 232.8300 14.14098339725469
SL-16 R/B               
1 22220U 92076B   26118.63238249 -.00000051  00000+0 -15983-5 0  9995
2 22220  70.9987  83.1689 0012237   8.7605 164.2429 14.16865107728909
COSMOS 2221             
1 22236U 92080A   26118.79210654  .00001981  00000+0  17228-3 0  9997
2 22236  82.5048 231.0780 0014762  29.9627 330.2436 14.96400690788283
SL-16 R/B               
1 22285U 92093B   26118.84446237  .00000259  00000+0  15711-3 0  9991
2 22285  71.0216 258.9739 0006100 243.3132 116.7366 14.15459656720258
COSMOS 2228             
1 22286U 92094A   26118.77470965  .00001840  00000+0  15536-3 0  9992
2 22286  82.5199 189.3626 0019186 130.7118 229.5775 14.97421601783557
SL-16 R/B               
1 22566U 93016B   26118.67791084 -.00000247  00000+0 -10208-3 0  9998
2 22566  71.0037 110.1929 0012451 250.9207 109.0568 14.15308323709243
COSMOS 2242             
1 22626U 93024A   26118.77892122  .00002027  00000+0  17455-3 0  9997
2 22626  82.5208 218.8008 0017420 133.8656 226.4009 14.96756307787887
